[{"OBJECT_NAME":"SUOMI-100","OBJECT_ID":"2018-099AY","EPOCH":"2026-03-09T16:23:06.300384","MEAN_MOTION":15.25995383,"ECCENTRICITY":0.00089691,"INCLINATION":97.4315,"RA_OF_ASC_NODE":129.5602,"ARG_OF_PERICENTER":269.9465,"MEAN_ANOMALY":90.0745,"EPHEMERIS_TYPE":0,"CLASSIFICATION_TYPE":"U","NORAD_CAT_ID":43804,"ELEMENT_SET_NO":999,"REV_AT_EPOCH":39823,"BSTAR":0.00054773118,"MEAN_MOTION_DOT":0.00014037,"MEAN_MOTION_DDOT":0},{"OBJECT_NAME":"STARLINK-30948","OBJECT_ID":"2023-191T","EPOCH":"2026-03-09T11:48:10.828800","MEAN_MOTION":15.26742007,"ECCENTRICITY":0.00013517,"INCLINATION":43.0032,"RA_OF_ASC_NODE":104.3273,"ARG_OF_PERICENTER":273.7226,"MEAN_ANOMALY":86.3471,"EPHEMERIS_TYPE":0,"CLASSIFICATION_TYPE":"U","NORAD_CAT_ID":58525,"ELEMENT_SET_NO":999,"REV_AT_EPOCH":12544,"BSTAR":2.0956294e-5,"MEAN_MOTION_DOT":3.02e-6,"MEAN_MOTION_DDOT":0}]
