SUOMI-100               
1 43804U 18099AY  26068.68271181  .00014037  00000+0  54773-3 0  9995
2 43804  97.4315 129.5602 0008969 269.9465  90.0745 15.25995383398238
STARLINK-30948          
1 58525U 23191T   26068.49179200  .00000302  00000+0  20956-4 0  9995
2 58525  43.0032 104.3273 0001351 273.7226  86.3471 15.26742007125447
